{
    "links": {
        "self": "http://www.neowsapp.com/rest/v1/neo/3946727?api_key=iIulBulltgU6a56xZRHN4H3l9WmuAYTsLGpBGhQ2"
    },
    "id": "3946727",
    "neo_reference_id": "3946727",
    "name": "(2019 YX2)",
    "designation": "2019 YX2",
    "nasa_jpl_url": "http://ssd.jpl.nasa.gov/sbdb.cgi?sstr=3946727",
    "absolute_magnitude_h": 26.3,
    "estimated_diameter": {
        "kilometers": {
            "estimated_diameter_min": 0.0146067964,
            "estimated_diameter_max": 0.0326617897
        },
        "meters": {
            "estimated_diameter_min": 14.6067964271,
            "estimated_diameter_max": 32.6617897446
        },
        "miles": {
            "estimated_diameter_min": 0.0090762397,
            "estimated_diameter_max": 0.020295089
        },
        "feet": {
            "estimated_diameter_min": 47.92256199,
            "estimated_diameter_max": 107.1581062656
        }
    },
    "is_potentially_hazardous_asteroid": false,
    "close_approach_data": [
        {
            "close_approach_date": "2019-12-27",
            "close_approach_date_full": "2019-Dec-27 21:05",
            "epoch_date_close_approach": 1577480700000,
            "relative_velocity": {
                "kilometers_per_second": "5.5351339117",
                "kilometers_per_hour": "19926.4820819769",
                "miles_per_hour": "12381.5410469928"
            },
            "miss_distance": {
                "astronomical": "0.0326217634",
                "lunar": "12.6898659626",
                "kilometers": "4880146.320283958",
                "miles": "3032382.3099883004"
            },
            "orbiting_body": "Earth"
        }
    ],
    "orbital_data": {
        "orbit_id": "1",
        "orbit_determination_date": "2019-12-25 16:12:07",
        "first_observation_date": "2019-12-24",
        "last_observation_date": "2019-12-25",
        "data_arc_in_days": 1,
        "observations_used": 17,
        "orbit_uncertainty": "8",
        "minimum_orbit_intersection": ".0227309",
        "jupiter_tisserand_invariant": "4.451",
        "epoch_osculation": "2458842.5",
        "eccentricity": ".3356681214562229",
        "semi_major_axis": "1.51227693423757",
        "inclination": "5.90501024984842",
        "ascending_node_longitude": "279.6236847263934",
        "orbital_period": "679.2746684713339",
        "perihelion_distance": "1.004653776600469",
        "perihelion_argument": "187.4944155359487",
        "aphelion_distance": "2.019900091874671",
        "perihelion_time": "2458854.653599169926",
        "mean_anomaly": "353.5588710955176",
        "mean_motion": ".5299770721763524",
        "equinox": "J2000",
        "orbit_class": {
            "orbit_class_type": "APO",
            "orbit_class_description": "Near-Earth asteroid orbits which cross the Earth’s orbit similar to that of 1862 Apollo",
            "orbit_class_range": "a (semi-major axis) > 1.0 AU; q (perihelion) < 1.017 AU"
        }
    },
    "is_sentry_object": false
}